#dP2022 12  9  6  0  0.00000000      96 __u+U ITR00 EXT  IAC
## 2239 453600.00000000   900.00000000 59922 0.2500000000000
+  117   C06C07C08C09C10C11C12C13C14C16C19C20C21C22C23C24C25
+        C26C27C28C29C30C32C33C34C35C36C37C38C39C40C41C42C43
+        C44C45C46E01E02E03E04E05E07E08E09E10E12E13E14E15E18
+        E19E21E24E25E26E27E30E31E33E34E36G01G02G03G04G05G06
+        G07G08G09G10G11G12G13G14G15G16G17G18G19G20G21G22G23
+        G24G25G26G27G29G30G31G32J02J03J04R01R02R03R04R05R07
+        R08R09R11R12R13R14R15R17R18R19R20R21R22R24R25  0  0
++         6 10 11  9 11 10  8 10 10  9  9  8  8 10  9  9  9
++        10  9  8  9  9  8  9  8  9 10  8  9 10 11  8 10  8
++         9  9  9  7  9  8  8  9  9  8  8  9  7  8  9  7  7
++         8  8  8  9  8  8  8  8  8  8  8 10  8  7  8  7  9
++         8  9  8  8  7  7  9  8  9  8  9  8  9  8  9  8  8
++         8  7  9  9  8  9  9  8 10  8  8  8  7  7  8  9  8
++         7 10  9  7  9  9  9  7  9  8  9  8  8  9  9  0  0
%c M  cc GPS ccc cccc cccc cccc cccc ccccc ccccc ccccc ccccc
%c cc cc ccc ccc cccc cccc cccc cccc ccccc ccccc ccccc ccccc
%f  0.0000000  0.000000000  0.00000000000  0.000000000000000
%f  0.0000000  0.000000000  0.00000000000  0.000000000000000
%i    0    0    0    0      0      0      0      0         0
%i    0    0    0    0      0      0      0      0         0
/* IAC                                ULTRA-RAPID PREDICTION
/* S/V CLOCKS ARE ALIGNED TO GNSS TIME                      
/* G:C1WC2W R:C1PC2P E:C1XC5X C:C2IC6I J:C1CC2S             
/* PCV:IGS20_2233 OL/AL:FES2004  NONE     YN ORB:CoN CLK:CoN
*  2022 12 09 23 30  0.00000000
PC06      0.000000      0.000000      0.000000    220.807232
PC07  -2742.008347  29374.980864 -30050.842175     97.731556
PC08 -17630.343140  23750.194039  29982.561210    521.263487
PC09  -6942.734452  41284.487185  -6597.326143   -786.682387
PC10   4749.121757  31504.156834 -27080.957425     54.286266
PC11  -1230.345298  27708.695154   3011.498958   -244.970545
PC12 -11484.148371  21232.667102 -13943.605444    338.658671
PC13  -8998.440434  24853.055210  32921.247038    154.216110
PC14   6772.439933  19950.605419  18286.984809    251.099654
PC16 -13557.963941  39653.346923   6064.949154    104.211397
PC19 -15759.675861 -20154.624716 -11138.459390   -905.214403
PC20   1315.097461 -17267.316396 -21880.624215    811.006440
PC21 -18917.977947   3676.559831  20197.782371   -928.312174
PC22 -24532.634719 -11607.245612   6528.155931   -748.622947
PC23  22349.836190   2684.463581 -16501.023131   -872.244134
PC24 -14430.885735  18621.834382 -14948.429497   -695.969336
PC25   7233.206877  14588.525374 -22673.519058     37.145916
PC26 -24938.150383  12476.635382   -121.418015    -47.623318
PC27  14869.742789 -13351.541807  19457.796413     63.856867
PC28  15037.816139   6818.342983  22504.444914     45.441244
PC29  -6895.928813 -24283.884748 -11895.597783     51.617454
PC30   5791.738211 -26602.575150   6074.968178      1.176676
PC32  18947.574913  -3750.421860 -20131.000670   -688.226117
PC33  15760.353878  20089.819095  11248.306079   -896.587922
PC34  -5095.198981  27001.126780  -4941.852551     57.607135
PC35 -14988.265227  -8118.759280 -22092.978925    125.927600
PC36  -6164.958855 -15088.729835  22669.118827   -779.325104
PC37  25608.440068 -11064.245686  -1196.222377   -887.755846
PC38 -23719.704788  25258.796224  23936.641311     43.866879
PC39 -13511.015523  38686.972419  10393.431797     -1.037854
PC40  -7135.070832  23719.399609 -34097.285623     -9.858049
PC41  24509.842759  11942.669348  -5913.093908   -363.391295
PC42  -2648.268850  16706.281736  22230.846557   -820.926418
PC43   6402.113488  24758.882242  11190.260133     29.295082
PC44 -14559.503392  13696.288566 -19491.888083    140.065567
PC45 -22506.108180  -2330.347534  16310.419006    -32.727480
PC46  12834.070573 -18730.849079  16247.802796    -18.519894
PE01 -12949.854464 -15961.195754  21296.941728   -571.239625
PE02  13287.502425  15896.528583 -21152.294576      7.610696
PE03  12926.676179  26602.487779  -1098.371007   -628.220843
PE04 -19684.127125 -13334.850711  17628.022504    -10.689358
PE05  -1606.135004  24534.941582  16479.170408   -116.615835
PE07  14988.155000  -8177.772969 -24181.889345     -5.899266
PE08  19623.169401  13364.910161 -17680.296525     -0.082245
PE09 -14947.767864   7918.847253  24285.030627   -758.381919
PE10 -20827.576773   7581.083680 -19614.329336   -496.672450
PE12 -17310.980171  -2397.544593 -23887.656473   -323.391360
PE13  21341.679571 -16471.738967  12231.515048    430.420820
PE14 -15538.500892  12710.280416 -22239.829913     80.094179
PE15  17093.107105   2653.084525  24031.204079    701.993740
PE18   3350.289259 -24774.372173  11965.256975   -646.785675
PE19 -11188.852772 -27359.096607  -1493.327746  -3784.548109
PE21   7851.000336 -15609.999005  23893.598295   -499.422081
PE24 -26296.731455   5726.203426 -12303.291105   -992.997976
PE25  -8180.966330  15530.588353 -23826.772960   -594.568267
PE26  12469.833838 -25809.871498  -7390.370358  -1886.067405
PE27  25795.285376  -6364.966840  13069.020368   -459.374788
PE30  28103.730721   7117.748380  -6040.605335  -1065.204159
PE31 -28363.072526  -6541.834122   5353.528603   -510.255001
PE33  -2778.559226 -20079.943289 -21558.419974   -455.553656
PE34   2976.967984  19957.001885  21653.330259    -18.809635
PE36 -13029.088650  25743.243865   6626.315286   -473.022051
PG01  13086.322312 -21975.802702  -6761.439157    239.941980
PG02  -9070.970651  23615.505719   9059.859053   -633.841699
PG03   8951.138376 -13105.208364 -21402.926835   -375.218287
PG04   2756.886875 -22473.927031 -13796.723041    -71.504856
PG05 -21726.938547   6736.187284  13635.453018   -107.460265
PG06 -15513.144226  -3344.808898 -21242.929500    536.837924
PG07    -19.688625 -19813.057650  17873.772559    276.633687
PG08   9983.675231 -13549.160704  20410.398039    -97.875034
PG09  -6943.740818 -25328.044052  -3879.512979   -255.976370
PG10  21312.773792  11496.934427  11432.427405    -15.411328
PG11 -20903.978510   7917.941538 -14307.883929    -54.019786
PG12 -10761.743758  12351.485245 -21158.341716   -314.046565
PG13 -14067.864245   5407.074180  21682.625041    439.196571
PG14 -19170.817648 -13335.128225  12769.623512    -70.727830
PG15  -8503.120580  15113.705411  19597.787698     -5.437834
PG16  24601.848687   -757.376146  10278.743367   -526.340080
PG17 -12594.485204 -21423.138245  -8813.812437    684.657960
PG18   1282.815101  18358.135355  19100.615768    -53.010989
PG19 -15658.902016 -12025.038276 -18123.308115    248.400309
PG20 -26355.516706   1066.968756   1815.112304    464.625200
PG21  16956.759453 -19648.267283   3679.436677    154.219974
PG22  16067.062677   8971.854233 -18793.871817    381.467245
PG23  11478.459291  14725.954624  18940.969606     -0.161694
PG24 -13936.903125  22283.293898  -1884.232462     22.949729
PG25   1201.745924  15741.756069 -21684.988553    400.550491
PG26  26391.767125   4073.859799  -1562.885938    238.022201
PG27  15293.642530  -1148.035284  21504.148192    157.369838
PG29   3225.377143  25688.401591  -5778.154484   -572.919270
PG30 -10735.807652 -11692.993593  21371.129528   -535.649388
PG31  17241.483305   2207.993619 -20362.384626   -202.773734
PG32  15399.429814  18541.214067 -11228.454176   -324.165240
PJ02 -31719.978354  15376.851393 -18536.831966     -0.281574
PJ03 -22510.425580  32906.290408  -9229.272370     -6.322630
PJ04 -27164.817709  26164.319000  24937.019489    114.786648
PR01  19797.357634  11762.999566 -10969.854584     19.281587
PR02  11598.649506  -3200.224431 -22463.986914    -23.404241
PR03  -2722.995836 -15968.269231 -19641.942614     68.795373
PR04 -15193.291947 -19570.254556  -6008.028047    167.995711
PR05 -19305.634171 -12566.258808  10929.554082    104.273428
PR07   3408.918809  16429.418989  19267.822583     45.794325
PR08  15318.019386  19547.800547   5956.692583    -68.473269
PR09 -22771.690307   9762.253550  -6210.959206     92.135345
PR11   8011.149651   8848.809289 -22533.059262     15.922368
PR12  22848.034891   -527.360255 -11329.605889     23.518032
PR13  23455.796456  -8889.114543   4633.782526    -29.776538
PR14   9622.380592 -12659.565461  19948.939652     24.093532
PR15  -9046.833997  -8638.898553  22245.947958     92.439531
PR17   6809.904515 -24605.202914   -177.918638    585.527218
PR18  -1618.433163 -19922.485593 -15795.730230     56.028330
PR19  -8651.065756  -6586.918947 -23067.677164   -213.965948
PR20 -12515.786090  14630.191684 -16738.845814    -83.653844
PR21  -6182.082367  24659.813324   1900.116590   -356.236397
PR22   1601.904975  19588.806714  16298.094813     19.471236
PR24  12347.394918 -15424.773399  16167.793406    131.726677
PR25  -8154.687488  24156.887407   -197.571831     48.482714
EOF
